STARLINK-36250          
1 68513U 26068F   26112.34796890  .00387800  00000+0  18671-2 0  9993
2 68513  53.1567 290.4774 0001433 140.9561 219.1566 15.81039130  3578
STARLINK-37251          
1 68514U 26068G   26112.41044050  .00267069  00000+0  13172-2 0  9991
2 68514  53.1567 290.1567 0001210  50.8929 309.2201 15.80840613  3589
STARLINK-36293          
1 68515U 26068H   26112.41043743  .00235998  00000+0  11679-2 0  9996
2 68515  53.1575 290.1563 0000782  82.7110 277.4002 15.80853604  3583
STARLINK-36290          
1 68516U 26068J   26112.59934088  .00294822  00000+0  14473-2 0  9993
2 68516  53.1571 289.2013 0001235  98.7131 261.4031 15.80866094  3619
STARLINK-36298          
1 68517U 26068K   26112.59859816  .00187814  00000+0  93257-3 0  9999
2 68517  53.1572 289.1962 0000849  63.7702 296.3408 15.80918773  3616
STARLINK-36857          
1 68518U 26068L   26112.59711124  .00139887  00000+0  70287-3 0  9994
2 68518  53.1567 289.1861 0000411  41.9931 318.1123 15.80810017  3615
STARLINK-36326          
1 68519U 26068M   26112.59633622  .00094832  00000+0  47633-3 0  9990
2 68519  53.1565 289.1798 0000806  31.0152 329.0918 15.80982916  3617
STARLINK-37126          
1 68520U 26068N   26112.65955983  .00231982  00000+0  11419-2 0  9997
2 68520  53.1566 288.8641 0000935  54.8801 305.2309 15.80981211  3628
STARLINK-36347          
1 68521U 26068P   26112.65865051  .00456297  00000+0  21278-2 0  9996
2 68521  53.1573 288.8571 0000208 350.9829   9.1190 15.81549196  3623
STARLINK-36322          
1 68522U 26068Q   26112.59410351  .00516671  00000+0  21720-2 0  9994
2 68522  53.1565 289.1653 0009193 224.3065 135.7224 15.83583341  3613
STARLINK-37208          
1 68523U 26068R   26112.59409834  .00331931  00000+0  16042-2 0  9994
2 68523  53.1562 289.1659 0000927 158.6970 201.4091 15.81105148  3613
STARLINK-36302          
1 68524U 26068S   26112.65656504  .00230656  00000+0  11390-2 0  9993
2 68524  53.1570 288.8446 0000772  76.4680 283.6429 15.80914554  3622
STARLINK-36311          
1 68525U 26068T   26112.59184565  .00218658  00000+0  10831-2 0  9997
2 68525  53.1573 289.1503 0001557 329.8019  30.2913 15.80881238  3612
STARLINK-37178          
1 68526U 26068U   26112.65581560  .00208538  00000+0  10319-2 0  9998
2 68526  53.1568 288.8382 0000854  93.1204 266.9916 15.80932988  3625
STARLINK-37248          
1 68527U 26068V   26112.40068586  .00219254  00000+0  10844-2 0  9990
2 68527  53.1567 290.0896 0001028 102.4243 257.6894 15.80912827  3588
STARLINK-37241          
1 68528U 26068W   26112.39842918 -.00127764  00000+0 -65003-3 0  9992
2 68528  53.1565 290.0759 0001780 353.1707   6.9291 15.80981092  3586
STARLINK-37244          
1 68529U 26068X   26112.65356784  .00242940  00000+0  11957-2 0  9993
2 68529  53.1580 288.8256 0001603  30.2809 329.8306 15.80952165  3629
