[{"OBJECT_NAME":"STARLINK-36250","OBJECT_ID":"2026-068F","EPOCH":"2026-04-22T08:21:04.512960","MEAN_MOTION":15.8103913,"ECCENTRICITY":0.0001433,"INCLINATION":53.1567,"RA_OF_ASC_NODE":290.4774,"ARG_OF_PERICENTER":140.9561,"MEAN_ANOMALY":219.1566,"EPHEMERIS_TYPE":0,"CLASSIFICATION_TYPE":"U","NORAD_CAT_ID":68513,"ELEMENT_SET_NO":999,"REV_AT_EPOCH":357,"BSTAR":0.0018671,"MEAN_MOTION_DOT":0.003878,"MEAN_MOTION_DDOT":0},{"OBJECT_NAME":"STARLINK-37251","OBJECT_ID":"2026-068G","EPOCH":"2026-04-22T09:51:02.059200","MEAN_MOTION":15.80840613,"ECCENTRICITY":0.000121,"INCLINATION":53.1567,"RA_OF_ASC_NODE":290.1567,"ARG_OF_PERICENTER":50.8929,"MEAN_ANOMALY":309.2201,"EPHEMERIS_TYPE":0,"CLASSIFICATION_TYPE":"U","NORAD_CAT_ID":68514,"ELEMENT_SET_NO":999,"REV_AT_EPOCH":358,"BSTAR":0.0013172,"MEAN_MOTION_DOT":0.00267069,"MEAN_MOTION_DDOT":0},{"OBJECT_NAME":"STARLINK-36293","OBJECT_ID":"2026-068H","EPOCH":"2026-04-22T09:51:01.793952","MEAN_MOTION":15.80853604,"ECCENTRICITY":7.82e-5,"INCLINATION":53.1575,"RA_OF_ASC_NODE":290.1563,"ARG_OF_PERICENTER":82.711,"MEAN_ANOMALY":277.4002,"EPHEMERIS_TYPE":0,"CLASSIFICATION_TYPE":"U","NORAD_CAT_ID":68515,"ELEMENT_SET_NO":999,"REV_AT_EPOCH":358,"BSTAR":0.0011679,"MEAN_MOTION_DOT":0.00235998,"MEAN_MOTION_DDOT":0},{"OBJECT_NAME":"STARLINK-36290","OBJECT_ID":"2026-068J","EPOCH":"2026-04-22T14:23:03.052032","MEAN_MOTION":15.80866094,"ECCENTRICITY":0.0001235,"INCLINATION":53.1571,"RA_OF_ASC_NODE":289.2013,"ARG_OF_PERICENTER":98.7131,"MEAN_ANOMALY":261.4031,"EPHEMERIS_TYPE":0,"CLASSIFICATION_TYPE":"U","NORAD_CAT_ID":68516,"ELEMENT_SET_NO":999,"REV_AT_EPOCH":361,"BSTAR":0.0014473,"MEAN_MOTION_DOT":0.00294822,"MEAN_MOTION_DDOT":0},{"OBJECT_NAME":"STARLINK-36298","OBJECT_ID":"2026-068K","EPOCH":"2026-04-22T14:21:58.881024","MEAN_MOTION":15.80918773,"ECCENTRICITY":8.49e-5,"INCLINATION":53.1572,"RA_OF_ASC_NODE":289.1962,"ARG_OF_PERICENTER":63.7702,"MEAN_ANOMALY":296.3408,"EPHEMERIS_TYPE":0,"CLASSIFICATION_TYPE":"U","NORAD_CAT_ID":68517,"ELEMENT_SET_NO":999,"REV_AT_EPOCH":361,"BSTAR":0.00093257,"MEAN_MOTION_DOT":0.00187814,"MEAN_MOTION_DDOT":0},{"OBJECT_NAME":"STARLINK-36857","OBJECT_ID":"2026-068L","EPOCH":"2026-04-22T14:19:50.411136","MEAN_MOTION":15.80810017,"ECCENTRICITY":4.11e-5,"INCLINATION":53.1567,"RA_OF_ASC_NODE":289.1861,"ARG_OF_PERICENTER":41.9931,"MEAN_ANOMALY":318.1123,"EPHEMERIS_TYPE":0,"CLASSIFICATION_TYPE":"U","NORAD_CAT_ID":68518,"ELEMENT_SET_NO":999,"REV_AT_EPOCH":361,"BSTAR":0.00070287,"MEAN_MOTION_DOT":0.00139887,"MEAN_MOTION_DDOT":0},{"OBJECT_NAME":"STARLINK-36326","OBJECT_ID":"2026-068M","EPOCH":"2026-04-22T14:18:43.449408","MEAN_MOTION":15.80982916,"ECCENTRICITY":8.06e-5,"INCLINATION":53.1565,"RA_OF_ASC_NODE":289.1798,"ARG_OF_PERICENTER":31.0152,"MEAN_ANOMALY":329.0918,"EPHEMERIS_TYPE":0,"CLASSIFICATION_TYPE":"U","NORAD_CAT_ID":68519,"ELEMENT_SET_NO":999,"REV_AT_EPOCH":361,"BSTAR":0.00047633,"MEAN_MOTION_DOT":0.00094832,"MEAN_MOTION_DDOT":0},{"OBJECT_NAME":"STARLINK-37126","OBJECT_ID":"2026-068N","EPOCH":"2026-04-22T15:49:45.969312","MEAN_MOTION":15.80981211,"ECCENTRICITY":9.36e-5,"INCLINATION":53.1566,"RA_OF_ASC_NODE":288.8641,"ARG_OF_PERICENTER":54.8801,"MEAN_ANOMALY":305.2309,"EPHEMERIS_TYPE":0,"CLASSIFICATION_TYPE":"U","NORAD_CAT_ID":68520,"ELEMENT_SET_NO":999,"REV_AT_EPOCH":362,"BSTAR":0.0011419,"MEAN_MOTION_DOT":0.00231982,"MEAN_MOTION_DDOT":0},{"OBJECT_NAME":"STARLINK-36347","OBJECT_ID":"2026-068P","EPOCH":"2026-04-22T15:48:27.404064","MEAN_MOTION":15.81549196,"ECCENTRICITY":2.09e-5,"INCLINATION":53.1573,"RA_OF_ASC_NODE":288.8571,"ARG_OF_PERICENTER":350.9829,"MEAN_ANOMALY":9.119,"EPHEMERIS_TYPE":0,"CLASSIFICATION_TYPE":"U","NORAD_CAT_ID":68521,"ELEMENT_SET_NO":999,"REV_AT_EPOCH":362,"BSTAR":0.0021278,"MEAN_MOTION_DOT":0.00456297,"MEAN_MOTION_DDOT":0},{"OBJECT_NAME":"STARLINK-36322","OBJECT_ID":"2026-068Q","EPOCH":"2026-04-22T14:15:30.543264","MEAN_MOTION":15.83583341,"ECCENTRICITY":0.0009193,"INCLINATION":53.1565,"RA_OF_ASC_NODE":289.1653,"ARG_OF_PERICENTER":224.3065,"MEAN_ANOMALY":135.7224,"EPHEMERIS_TYPE":0,"CLASSIFICATION_TYPE":"U","NORAD_CAT_ID":68522,"ELEMENT_SET_NO":999,"REV_AT_EPOCH":361,"BSTAR":0.002172,"MEAN_MOTION_DOT":0.00516671,"MEAN_MOTION_DDOT":0},{"OBJECT_NAME":"STARLINK-37208","OBJECT_ID":"2026-068R","EPOCH":"2026-04-22T14:15:30.096576","MEAN_MOTION":15.81105148,"ECCENTRICITY":9.27e-5,"INCLINATION":53.1562,"RA_OF_ASC_NODE":289.1659,"ARG_OF_PERICENTER":158.697,"MEAN_ANOMALY":201.4091,"EPHEMERIS_TYPE":0,"CLASSIFICATION_TYPE":"U","NORAD_CAT_ID":68523,"ELEMENT_SET_NO":999,"REV_AT_EPOCH":361,"BSTAR":0.0016042,"MEAN_MOTION_DOT":0.00331931,"MEAN_MOTION_DDOT":0},{"OBJECT_NAME":"STARLINK-36302","OBJECT_ID":"2026-068S","EPOCH":"2026-04-22T15:45:27.218592","MEAN_MOTION":15.80914554,"ECCENTRICITY":7.72e-5,"INCLINATION":53.157,"RA_OF_ASC_NODE":288.8446,"ARG_OF_PERICENTER":76.468,"MEAN_ANOMALY":283.6429,"EPHEMERIS_TYPE":0,"CLASSIFICATION_TYPE":"U","NORAD_CAT_ID":68524,"ELEMENT_SET_NO":999,"REV_AT_EPOCH":362,"BSTAR":0.001139,"MEAN_MOTION_DOT":0.00230656,"MEAN_MOTION_DDOT":0},{"OBJECT_NAME":"STARLINK-36311","OBJECT_ID":"2026-068T","EPOCH":"2026-04-22T14:12:15.464160","MEAN_MOTION":15.80881238,"ECCENTRICITY":0.0001557,"INCLINATION":53.1573,"RA_OF_ASC_NODE":289.1503,"ARG_OF_PERICENTER":329.8019,"MEAN_ANOMALY":30.2913,"EPHEMERIS_TYPE":0,"CLASSIFICATION_TYPE":"U","NORAD_CAT_ID":68525,"ELEMENT_SET_NO":999,"REV_AT_EPOCH":361,"BSTAR":0.0010831,"MEAN_MOTION_DOT":0.00218658,"MEAN_MOTION_DDOT":0},{"OBJECT_NAME":"STARLINK-37178","OBJECT_ID":"2026-068U","EPOCH":"2026-04-22T15:44:22.466976","MEAN_MOTION":15.80932987,"ECCENTRICITY":8.55e-5,"INCLINATION":53.1568,"RA_OF_ASC_NODE":288.8382,"ARG_OF_PERICENTER":93.1204,"MEAN_ANOMALY":266.9916,"EPHEMERIS_TYPE":0,"CLASSIFICATION_TYPE":"U","NORAD_CAT_ID":68526,"ELEMENT_SET_NO":999,"REV_AT_EPOCH":362,"BSTAR":0.0010319,"MEAN_MOTION_DOT":0.00208538,"MEAN_MOTION_DDOT":0},{"OBJECT_NAME":"STARLINK-37248","OBJECT_ID":"2026-068V","EPOCH":"2026-04-22T09:36:59.258304","MEAN_MOTION":15.80912827,"ECCENTRICITY":0.0001028,"INCLINATION":53.1567,"RA_OF_ASC_NODE":290.0896,"ARG_OF_PERICENTER":102.4243,"MEAN_ANOMALY":257.6894,"EPHEMERIS_TYPE":0,"CLASSIFICATION_TYPE":"U","NORAD_CAT_ID":68527,"ELEMENT_SET_NO":999,"REV_AT_EPOCH":358,"BSTAR":0.0010844,"MEAN_MOTION_DOT":0.00219254,"MEAN_MOTION_DDOT":0},{"OBJECT_NAME":"STARLINK-37241","OBJECT_ID":"2026-068W","EPOCH":"2026-04-22T09:33:44.281152","MEAN_MOTION":15.80981092,"ECCENTRICITY":0.000178,"INCLINATION":53.1565,"RA_OF_ASC_NODE":290.0759,"ARG_OF_PERICENTER":353.1707,"MEAN_ANOMALY":6.9291,"EPHEMERIS_TYPE":0,"CLASSIFICATION_TYPE":"U","NORAD_CAT_ID":68528,"ELEMENT_SET_NO":999,"REV_AT_EPOCH":358,"BSTAR":-0.00065003,"MEAN_MOTION_DOT":-0.00127764,"MEAN_MOTION_DDOT":0},{"OBJECT_NAME":"STARLINK-37244","OBJECT_ID":"2026-068X","EPOCH":"2026-04-22T15:41:08.261376","MEAN_MOTION":15.80952165,"ECCENTRICITY":0.0001603,"INCLINATION":53.158,"RA_OF_ASC_NODE":288.8256,"ARG_OF_PERICENTER":30.2809,"MEAN_ANOMALY":329.8306,"EPHEMERIS_TYPE":0,"CLASSIFICATION_TYPE":"U","NORAD_CAT_ID":68529,"ELEMENT_SET_NO":999,"REV_AT_EPOCH":362,"BSTAR":0.0011957,"MEAN_MOTION_DOT":0.0024294,"MEAN_MOTION_DDOT":0}]
